ID,contactDetails,country,description,endDate,function,latitude,locality,longitude,name,postCode,sourceRecordLink,startDate,state,type,url,warning
CRSH0003,,England,"Leicester Square is a pedestrianised square in the West End of London, England. It was laid out in 1670 as Leicester Fields, which was named after the recently built Leicester House, itself named after Robert Sidney, 2nd Earl of Leicester. The square was originally a gentrified residential area, with tenants including Frederick, Prince of Wales and the artists William Hogarth and Joshua Reynolds. It became more down-market in the late 18th century as Leicester House was demolished and retail developments took place, becoming a centre for entertainment. Several major theatres were built in the 19th century, which were converted to cinemas towards the middle of the next. Leicester Square is the location of nationally significant cinemas such as the Odeon Leicester Square, Empire, Leicester Square, which are often used for film premieres (and the now closed Odeon West End). The nearby Prince Charles Cinema is known for its screenings of cult films and marathon film runs. The square remains a tourist attraction which hosts events, including for the Chinese New Year.",,,51.5104,London West End,-0.1301,Leicester Square,WC2H,https://en.wikipedia.org/wiki/Leicester_Square,1670,,Park; Entertainment Centre,,
NPNHS_00001,,Canada,Parc national du Canada Banff,,,,,,Banff National Park ,,https://www.lunaris.ca/catalog/dd7e21b7-76e2-54c0-a7a6-497346d4f0bc?locale=en&q=National+Parks+and+National+Historic+Sites,,,National Park of Canada,,
NPNHS_00002,,Canada,Parc national du Canada des Lacs-Waterton,,,,,,Waterton Lakes National Park ,,https://www.lunaris.ca/catalog/dd7e21b7-76e2-54c0-a7a6-497346d4f0bc?locale=en&q=National+Parks+and+National+Historic+Sites,,,National Park of Canada,,
NPNHS_00003,,Canada,Parc national du Canada Jasper,,,,,,Jasper National Park ,,https://www.lunaris.ca/catalog/dd7e21b7-76e2-54c0-a7a6-497346d4f0bc?locale=en&q=National+Parks+and+National+Historic+Sites,,,National Park of Canada,,
NPNHS_00004,,Canada,Parc national du Canada Yoho,,,,,,Yoho National Park ,,https://www.lunaris.ca/catalog/dd7e21b7-76e2-54c0-a7a6-497346d4f0bc?locale=en&q=National+Parks+and+National+Historic+Sites,,,National Park of Canada,,
NPNHS_00005,,Canada,Parc national du Canada des Glaciers,,,,,,Glacier National Park ,,https://www.lunaris.ca/catalog/dd7e21b7-76e2-54c0-a7a6-497346d4f0bc?locale=en&q=National+Parks+and+National+Historic+Sites,,,National Park of Canada,,
NPNHS_00006,,Canada,Parc national du Canada Elk Island,,,,,,Elk Island National Park ,,https://www.lunaris.ca/catalog/dd7e21b7-76e2-54c0-a7a6-497346d4f0bc?locale=en&q=National+Parks+and+National+Historic+Sites,,,National Park of Canada,,
NPNHS_00007,,Canada,Parc national du Canada du Mont-Revelstoke,,,,,,Mount Revelstoke National Park ,,https://www.lunaris.ca/catalog/dd7e21b7-76e2-54c0-a7a6-497346d4f0bc?locale=en&q=National+Parks+and+National+Historic+Sites,,,National Park of Canada,,
NPNHS_00008,,Canada,Parc national du Canada des Mille-Îles,,,,,,Thousand Islands National Park ,,https://www.lunaris.ca/catalog/dd7e21b7-76e2-54c0-a7a6-497346d4f0bc?locale=en&q=National+Parks+and+National+Historic+Sites,,,National Park of Canada,,
NPNHS_00009,,Canada,Parc national du Canada de la Pointe-Pelée,,,,,,Point Pelee National Park ,,https://www.lunaris.ca/catalog/dd7e21b7-76e2-54c0-a7a6-497346d4f0bc?locale=en&q=National+Parks+and+National+Historic+Sites,,,National Park of Canada,,
NPNHS_00010,,Canada,Parc national du Canada Kootenay,,,,,,Kootenay National Park ,,https://www.lunaris.ca/catalog/dd7e21b7-76e2-54c0-a7a6-497346d4f0bc?locale=en&q=National+Parks+and+National+Historic+Sites,,,National Park of Canada,,
NPNHS_00011,,Canada,Parc national du Canada Wood Buffalo,,,,,,Wood Buffalo National Park ,,https://www.lunaris.ca/catalog/dd7e21b7-76e2-54c0-a7a6-497346d4f0bc?locale=en&q=National+Parks+and+National+Historic+Sites,,,National Park of Canada,,
NPNHS_00012,,Canada,Parc national du Canada de Prince Albert,,,,,,Prince Albert National Park ,,https://www.lunaris.ca/catalog/dd7e21b7-76e2-54c0-a7a6-497346d4f0bc?locale=en&q=National+Parks+and+National+Historic+Sites,,,National Park of Canada,,
NPNHS_00013,,Canada,Parc national du Canada du Mont-Riding,,,,,,Riding Mountain National Park ,,https://www.lunaris.ca/catalog/dd7e21b7-76e2-54c0-a7a6-497346d4f0bc?locale=en&q=National+Parks+and+National+Historic+Sites,,,National Park of Canada,,
NPNHS_00014,,Canada,Parc national du Canada des Îles-de-la-Baie-Georgienne,,,,,,Georgian Bay Islands National Park ,,https://www.lunaris.ca/catalog/dd7e21b7-76e2-54c0-a7a6-497346d4f0bc?locale=en&q=National+Parks+and+National+Historic+Sites,,,National Park of Canada,,
NPNHS_00015,,Canada,Parc national du Canada des Hautes-Terres-du-Cap-Breton,,,,,,Cape Breton Highlands National Park ,,https://www.lunaris.ca/catalog/dd7e21b7-76e2-54c0-a7a6-497346d4f0bc?locale=en&q=National+Parks+and+National+Historic+Sites,,,National Park of Canada,,
NPNHS_00016,,Canada,Parc national du Canada de l'Île-du-Prince-Édouard,,,,,,Prince Edward Island National Park ,,https://www.lunaris.ca/catalog/dd7e21b7-76e2-54c0-a7a6-497346d4f0bc?locale=en&q=National+Parks+and+National+Historic+Sites,,,National Park of Canada,,
NPNHS_00017,,Canada,Parc national du Canada Fundy,,,,,,Fundy National Park ,,https://www.lunaris.ca/catalog/dd7e21b7-76e2-54c0-a7a6-497346d4f0bc?locale=en&q=National+Parks+and+National+Historic+Sites,,,National Park of Canada,,
NPNHS_00018,,Canada,Parc national du Canada Terra-Nova,,,,,,Terra Nova National Park ,,https://www.lunaris.ca/catalog/dd7e21b7-76e2-54c0-a7a6-497346d4f0bc?locale=en&q=National+Parks+and+National+Historic+Sites,,,National Park of Canada,,
NPNHS_00019,,Canada,Parc national du Canada Kejimkujik,,,,,,Kejimkujik National Park ,,https://www.lunaris.ca/catalog/dd7e21b7-76e2-54c0-a7a6-497346d4f0bc?locale=en&q=National+Parks+and+National+Historic+Sites,,,National Park of Canada,,
NPNHS_00020,,Canada,Parc national du Canada Kouchibouguac,,,,,,Kouchibouguac National Park ,,https://www.lunaris.ca/catalog/dd7e21b7-76e2-54c0-a7a6-497346d4f0bc?locale=en&q=National+Parks+and+National+Historic+Sites,,,National Park of Canada,,
NPNHS_00021,,Canada,Réserve de parc national du Canada Pacific Rim,,,,,,Pacific Rim National Park Reserve ,,https://www.lunaris.ca/catalog/dd7e21b7-76e2-54c0-a7a6-497346d4f0bc?locale=en&q=National+Parks+and+National+Historic+Sites,,,National Park of Canada,,
NPNHS_00022,,Canada,Parc national du Canada Forillon,,,,,,Forillon National Park ,,https://www.lunaris.ca/catalog/dd7e21b7-76e2-54c0-a7a6-497346d4f0bc?locale=en&q=National+Parks+and+National+Historic+Sites,,,National Park of Canada,,
NPNHS_00023,,Canada,Parc national du Canada de la Mauricie,,,,,,La Mauricie National Park ,,https://www.lunaris.ca/catalog/dd7e21b7-76e2-54c0-a7a6-497346d4f0bc?locale=en&q=National+Parks+and+National+Historic+Sites,,,National Park of Canada,,
NPNHS_00024,,Canada,Parc national du Canada du Gros-Morne,,,,,,Gros Morne National Park ,,https://www.lunaris.ca/catalog/dd7e21b7-76e2-54c0-a7a6-497346d4f0bc?locale=en&q=National+Parks+and+National+Historic+Sites,,,National Park of Canada,,
NPNHS_00025,,Canada,Parc national du Canada Pukaskwa,,,,,,Pukaskwa National Park ,,https://www.lunaris.ca/catalog/dd7e21b7-76e2-54c0-a7a6-497346d4f0bc?locale=en&q=National+Parks+and+National+Historic+Sites,,,National Park of Canada,,
NPNHS_00026,,Canada,Parc national et réserve de parc national du Canada Kluane,,,,,,Kluane National Park and Reserve ,,https://www.lunaris.ca/catalog/dd7e21b7-76e2-54c0-a7a6-497346d4f0bc?locale=en&q=National+Parks+and+National+Historic+Sites,,,National Park of Canada,,
NPNHS_00027,,Canada,Réserve de parc national du Canada Nahanni,,,,,,Nahanni National Park Reserve ,,https://www.lunaris.ca/catalog/dd7e21b7-76e2-54c0-a7a6-497346d4f0bc?locale=en&q=National+Parks+and+National+Historic+Sites,,,National Park of Canada,,
NPNHS_00028,,Canada,Parc national du Canada Auyuittuq,,,,,,Auyuittuq National Park ,,https://www.lunaris.ca/catalog/dd7e21b7-76e2-54c0-a7a6-497346d4f0bc?locale=en&q=National+Parks+and+National+Historic+Sites,,,National Park of Canada,,
NPNHS_00029,,Canada,Lieu historique national du Canada Alexander-Graham-Bell,,,,,,Alexander Graham Bell National Historic Site ,,https://www.lunaris.ca/catalog/dd7e21b7-76e2-54c0-a7a6-497346d4f0bc?locale=en&q=National+Parks+and+National+Historic+Sites,,,National Historic Site of Canada,,
NPNHS_00030,,Canada,Lieu historique national du Canada de la Tour-Martello-de-Carleton,,,,,,Carleton Martello Tower,,https://www.lunaris.ca/catalog/dd7e21b7-76e2-54c0-a7a6-497346d4f0bc?locale=en&q=National+Parks+and+National+Historic+Sites,,,National Historic Site of Canada,,
NPNHS_00031,,Canada,Lieu historique national du Canada de Castle Hill,,,,,,Castle Hill,,https://www.lunaris.ca/catalog/dd7e21b7-76e2-54c0-a7a6-497346d4f0bc?locale=en&q=National+Parks+and+National+Historic+Sites,,,National Historic Site of Canada,,
NPNHS_00032,,Canada,Lieu historique national du Canada de Skmaqn-Port-la-Joye/ Fort-Amherst,,,,,,Skmaqn-Port-la-Joye/Fort Amherst,,https://www.lunaris.ca/catalog/dd7e21b7-76e2-54c0-a7a6-497346d4f0bc?locale=en&q=National+Parks+and+National+Historic+Sites,,,National Historic Site of Canada,,
NPNHS_00033,,Canada,Lieu historique national du Canada du Fort-Anne,,,,,,Fort Anne,,https://www.lunaris.ca/catalog/dd7e21b7-76e2-54c0-a7a6-497346d4f0bc?locale=en&q=National+Parks+and+National+Historic+Sites,,,National Historic Site of Canada,,
NPNHS_00034,,Canada,Lieu historique national du Canada du Fort-Beauséjour – Fort-Cumberland,,,,,,Fort Beauséjour – Fort Cumberland,,https://www.lunaris.ca/catalog/dd7e21b7-76e2-54c0-a7a6-497346d4f0bc?locale=en&q=National+Parks+and+National+Historic+Sites,,,National Historic Site of Canada,,
NPNHS_00035,,Canada,Lieu historique national du Canada du Fort-Edward,,,,,,Fort Edward,,https://www.lunaris.ca/catalog/dd7e21b7-76e2-54c0-a7a6-497346d4f0bc?locale=en&q=National+Parks+and+National+Historic+Sites,,,National Historic Site of Canada,,
NPNHS_00036,,Canada,Lieu historique national du Canada de la Forteresse-de-Louisbourg,,,,,,Fortress of Louisbourg,,https://www.lunaris.ca/catalog/dd7e21b7-76e2-54c0-a7a6-497346d4f0bc?locale=en&q=National+Parks+and+National+Historic+Sites,,,National Historic Site of Canada,,
NPNHS_00037,,Canada,Lieu historique national du Canada de Grand-Pré,,,,,,Grand-Pré,,https://www.lunaris.ca/catalog/dd7e21b7-76e2-54c0-a7a6-497346d4f0bc?locale=en&q=National+Parks+and+National+Historic+Sites,,,National Historic Site of Canada,,
NPNHS_00038,,Canada,Lieu historique national du Canada de la Citadelle-d'Halifax,,,,,,Halifax Citadel,,https://www.lunaris.ca/catalog/dd7e21b7-76e2-54c0-a7a6-497346d4f0bc?locale=en&q=National+Parks+and+National+Historic+Sites,,,National Historic Site of Canada,,
NPNHS_00039,,Canada,Lieu historique national du Canada de L'Anse aux Meadows,,,,,,L'Anse aux Meadows,,https://www.lunaris.ca/catalog/dd7e21b7-76e2-54c0-a7a6-497346d4f0bc?locale=en&q=National+Parks+and+National+Historic+Sites,,,National Historic Site of Canada,,
NPNHS_00040,,Canada,Lieu historique national du Canada de Port au Choix,,,,,,Port au Choix,,https://www.lunaris.ca/catalog/dd7e21b7-76e2-54c0-a7a6-497346d4f0bc?locale=en&q=National+Parks+and+National+Historic+Sites,,,National Historic Site of Canada,,
NPNHS_00041,,Canada,Lieu historique national du Canada de Port-Royal,,,,,,Port-Royal,,https://www.lunaris.ca/catalog/dd7e21b7-76e2-54c0-a7a6-497346d4f0bc?locale=en&q=National+Parks+and+National+Historic+Sites,,,National Historic Site of Canada,,
NPNHS_00042,,Canada,Lieu historique national du Canada de la Tour-Prince-de-Galles,,,,,,Prince of Wales Tower,,https://www.lunaris.ca/catalog/dd7e21b7-76e2-54c0-a7a6-497346d4f0bc?locale=en&q=National+Parks+and+National+Historic+Sites,,,National Historic Site of Canada,,
NPNHS_00043,,Canada,Lieu historique national du Canada Province House,,,,,,Province House,,https://www.lunaris.ca/catalog/dd7e21b7-76e2-54c0-a7a6-497346d4f0bc?locale=en&q=National+Parks+and+National+Historic+Sites,,,National Historic Site of Canada,,
NPNHS_00044,,Canada,Lieu historique national du Canada du Blockhaus-de-St. Andrews,,,,,,St. Andrews Blockhouse,,https://www.lunaris.ca/catalog/dd7e21b7-76e2-54c0-a7a6-497346d4f0bc?locale=en&q=National+Parks+and+National+Historic+Sites,,,National Historic Site of Canada,,
NPNHS_00045,,Canada,Lieu historique national du Canada de Signal Hill,,,,,,Signal Hill,,https://www.lunaris.ca/catalog/dd7e21b7-76e2-54c0-a7a6-497346d4f0bc?locale=en&q=National+Parks+and+National+Historic+Sites,,,National Historic Site of Canada,,
NPNHS_00046,,Canada,Lieu historique national du Canada de la Redoute-York,,,,,,York Redoubt,,https://www.lunaris.ca/catalog/dd7e21b7-76e2-54c0-a7a6-497346d4f0bc?locale=en&q=National+Parks+and+National+Historic+Sites,,,National Historic Site of Canada,,
NPNHS_00047,,Canada,Site patrimonial du Parc-de-l'Artillerie,,,,,,Artillery Park,,https://www.lunaris.ca/catalog/dd7e21b7-76e2-54c0-a7a6-497346d4f0bc?locale=en&q=National+Parks+and+National+Historic+Sites,,,Heritage Site,,
NPNHS_00048,,Canada,Lieu historique national du Canada Cartier-Brébeuf,,,,,,Cartier-Brébeuf,,https://www.lunaris.ca/catalog/dd7e21b7-76e2-54c0-a7a6-497346d4f0bc?locale=en&q=National+Parks+and+National+Historic+Sites,,,National Historic Site of Canada,,
NPNHS_00049,,Canada,Lieu historique national du Canada de Coteau-du-Lac,,,,,,Coteau-du-Lac,,https://www.lunaris.ca/catalog/dd7e21b7-76e2-54c0-a7a6-497346d4f0bc?locale=en&q=National+Parks+and+National+Historic+Sites,,,National Historic Site of Canada,,
NPNHS_00050,,Canada,Lieu historique national du Canada des Forges-du-Saint-Maurice,,,,,,Forges du Saint-Maurice,,https://www.lunaris.ca/catalog/dd7e21b7-76e2-54c0-a7a6-497346d4f0bc?locale=en&q=National+Parks+and+National+Historic+Sites,,,National Historic Site of Canada,,
NPNHS_00051,,Canada,Lieu historique national du Canada du Fort-Chambly,,,,,,Fort Chambly,,https://www.lunaris.ca/catalog/dd7e21b7-76e2-54c0-a7a6-497346d4f0bc?locale=en&q=National+Parks+and+National+Historic+Sites,,,National Historic Site of Canada,,
NPNHS_00052,,Canada,Lieu historique national du Canada du Fort-Lennox,,,,,,Fort Lennox,,https://www.lunaris.ca/catalog/dd7e21b7-76e2-54c0-a7a6-497346d4f0bc?locale=en&q=National+Parks+and+National+Historic+Sites,,,National Historic Site of Canada,,
NPNHS_00053,,Canada,Lieu historique national du Canada des Forts-de-Lévis,,,,,,Lévis Forts,,https://www.lunaris.ca/catalog/dd7e21b7-76e2-54c0-a7a6-497346d4f0bc?locale=en&q=National+Parks+and+National+Historic+Sites,,,National Historic Site of Canada,,
NPNHS_00054,,Canada,Lieu historique national du Canada du Fort-Témiscamingue,,,,,,Fort Témiscamingue,,https://www.lunaris.ca/catalog/dd7e21b7-76e2-54c0-a7a6-497346d4f0bc?locale=en&q=National+Parks+and+National+Historic+Sites,,,National Historic Site of Canada,,
NPNHS_00055,,Canada,Lieu historique national du Canada des Fortifications-de-Québec,,,,,,Fortifications of Québec,,https://www.lunaris.ca/catalog/dd7e21b7-76e2-54c0-a7a6-497346d4f0bc?locale=en&q=National+Parks+and+National+Historic+Sites,,,National Historic Site of Canada,,
NPNHS_00056,,Canada,Lieu historique national du Canada de Sir-Wilfrid-Laurier,,,,,,Sir Wilfrid Laurier,,https://www.lunaris.ca/catalog/dd7e21b7-76e2-54c0-a7a6-497346d4f0bc?locale=en&q=National+Parks+and+National+Historic+Sites,,,National Historic Site of Canada,,
NPNHS_00057,,Canada,Lieu historique national du Canada de la Villa-Bellevue,,,,,,Bellevue House,,https://www.lunaris.ca/catalog/dd7e21b7-76e2-54c0-a7a6-497346d4f0bc?locale=en&q=National+Parks+and+National+Historic+Sites,,,National Historic Site of Canada,,
NPNHS_00058,,Canada,Lieu historique national du Canada de la Maison-Commémorative-Bethune,,,,,,Bethune Memorial House,,https://www.lunaris.ca/catalog/dd7e21b7-76e2-54c0-a7a6-497346d4f0bc?locale=en&q=National+Parks+and+National+Historic+Sites,,,National Historic Site of Canada,,
NPNHS_00059,,Canada,Lieu historique national du Canada des Hauteurs-de-Queenston,,,,,,Queenston Heights,,https://www.lunaris.ca/catalog/dd7e21b7-76e2-54c0-a7a6-497346d4f0bc?locale=en&q=National+Parks+and+National+Historic+Sites,,,National Historic Site of Canada,,
NPNHS_00060,,Canada,Lieu historique national du Canada du Fort-George,,,,,,Fort George,,https://www.lunaris.ca/catalog/dd7e21b7-76e2-54c0-a7a6-497346d4f0bc?locale=en&q=National+Parks+and+National+Historic+Sites,,,National Historic Site of Canada,,
NPNHS_00061,,Canada,Lieu historique national du Canada du Fort-Malden,,,,,,Fort Malden,,https://www.lunaris.ca/catalog/dd7e21b7-76e2-54c0-a7a6-497346d4f0bc?locale=en&q=National+Parks+and+National+Historic+Sites,,,National Historic Site of Canada,,
NPNHS_00062,,Canada,Lieu historique national du Canada du Fort-St. Joseph,,,,,,Fort St. Joseph,,https://www.lunaris.ca/catalog/dd7e21b7-76e2-54c0-a7a6-497346d4f0bc?locale=en&q=National+Parks+and+National+Historic+Sites,,,National Historic Site of Canada,,
NPNHS_00063,,Canada,Lieu historique national du Canada du Fort-Wellington,,,,,,Fort Wellington,,https://www.lunaris.ca/catalog/dd7e21b7-76e2-54c0-a7a6-497346d4f0bc?locale=en&q=National+Parks+and+National+Historic+Sites,,,National Historic Site of Canada,,
NPNHS_00064,,Canada,Lieu historique national du Canada Woodside,,,,,,Woodside,,https://www.lunaris.ca/catalog/dd7e21b7-76e2-54c0-a7a6-497346d4f0bc?locale=en&q=National+Parks+and+National+Historic+Sites,,,National Historic Site of Canada,,
NPNHS_00065,,Canada,Lieu historique national du Canada de Batoche,,,,,,Batoche,,https://www.lunaris.ca/catalog/dd7e21b7-76e2-54c0-a7a6-497346d4f0bc?locale=en&q=National+Parks+and+National+Historic+Sites,,,National Historic Site of Canada,,
NPNHS_00066,,Canada,Lieu historique national du Canada du Fort-Battleford,,,,,,Fort Battleford,,https://www.lunaris.ca/catalog/dd7e21b7-76e2-54c0-a7a6-497346d4f0bc?locale=en&q=National+Parks+and+National+Historic+Sites,,,National Historic Site of Canada,,
NPNHS_00067,,Canada,Lieu historique national du Canada du Fort-Prince-de-Galles,,,,,,Prince of Wales Fort,,https://www.lunaris.ca/catalog/dd7e21b7-76e2-54c0-a7a6-497346d4f0bc?locale=en&q=National+Parks+and+National+Historic+Sites,,,National Historic Site of Canada,,
NPNHS_00068,,Canada,Lieu historique national du Canada du Fort-Walsh,,,,,,Fort Walsh,,https://www.lunaris.ca/catalog/dd7e21b7-76e2-54c0-a7a6-497346d4f0bc?locale=en&q=National+Parks+and+National+Historic+Sites,,,National Historic Site of Canada,,
NPNHS_00069,,Canada,Lieu historique national du Canada de Lower Fort Garry,,,,,,Lower Fort Garry,,https://www.lunaris.ca/catalog/dd7e21b7-76e2-54c0-a7a6-497346d4f0bc?locale=en&q=National+Parks+and+National+Historic+Sites,,,National Historic Site of Canada,,
NPNHS_00070,,Canada,Réserve de Parc national du Canada Nááts'?hch'oh,,,,,,Nááts'?hch'oh,,https://www.lunaris.ca/catalog/dd7e21b7-76e2-54c0-a7a6-497346d4f0bc?locale=en&q=National+Parks+and+National+Historic+Sites,,,National Historic Site of Canada,,
NPNHS_00071,,Canada,Les lieux historiques nationaux du Canada du Klondike,,,,,,Klondike,,https://www.lunaris.ca/catalog/dd7e21b7-76e2-54c0-a7a6-497346d4f0bc?locale=en&q=National+Parks+and+National+Historic+Sites,,,National Historic Site of Canada,,
NPNHS_00072,,Canada,Lieu historique national du Canada S.S. Keno,,,,,,S.S. Keno,,https://www.lunaris.ca/catalog/dd7e21b7-76e2-54c0-a7a6-497346d4f0bc?locale=en&q=National+Parks+and+National+Historic+Sites,,,National Historic Site of Canada,,
NPNHS_00073,,Canada,Lieu historique national du Canada S.S. Klondike,,,,,,S.S. Klondike,,https://www.lunaris.ca/catalog/dd7e21b7-76e2-54c0-a7a6-497346d4f0bc?locale=en&q=National+Parks+and+National+Historic+Sites,,,National Historic Site of Canada,,
NPNHS_00074,,Canada,Lieu historique national du Canada York Factory,,,,,,York Factory,,https://www.lunaris.ca/catalog/dd7e21b7-76e2-54c0-a7a6-497346d4f0bc?locale=en&q=National+Parks+and+National+Historic+Sites,,,National Historic Site of Canada,,
NPNHS_00075,,Canada,Lieu historique national du Canada du Fort-Langley,,,,,,Fort Langley,,https://www.lunaris.ca/catalog/dd7e21b7-76e2-54c0-a7a6-497346d4f0bc?locale=en&q=National+Parks+and+National+Historic+Sites,,,National Historic Site of Canada,,
NPNHS_00076,,Canada,Lieu historique national du Canada du Fort-St. James,,,,,,Fort St. James,,https://www.lunaris.ca/catalog/dd7e21b7-76e2-54c0-a7a6-497346d4f0bc?locale=en&q=National+Parks+and+National+Historic+Sites,,,National Historic Site of Canada,,
NPNHS_00077,,Canada,Lieu historique national du Canada Rocky Mountain House,,,,,,Rocky Mountain House,,https://www.lunaris.ca/catalog/dd7e21b7-76e2-54c0-a7a6-497346d4f0bc?locale=en&q=National+Parks+and+National+Historic+Sites,,,National Historic Site of Canada,,
NPNHS_00078,,Canada,Lieu historique national du Canada du Cap-Spear,,,,,,Cape Spear,,https://www.lunaris.ca/catalog/dd7e21b7-76e2-54c0-a7a6-497346d4f0bc?locale=en&q=National+Parks+and+National+Historic+Sites,,,National Historic Site of Canada,,
NPNHS_00079,,Canada,Lieu historique national du Canada de la Bataille-de-la-Châteauguay,,,,,,Battle of the Châteauguay,,https://www.lunaris.ca/catalog/dd7e21b7-76e2-54c0-a7a6-497346d4f0bc?locale=en&q=National+Parks+and+National+Historic+Sites,,,National Historic Site of Canada,,
NPNHS_00080,,Canada,Lieu historique national du Canada de la Drague-Numéro-Quatre,,,,,,Dredge No. 4,,https://www.lunaris.ca/catalog/dd7e21b7-76e2-54c0-a7a6-497346d4f0bc?locale=en&q=National+Parks+and+National+Historic+Sites,,,National Historic Site of Canada,,
NPNHS_00081,,Canada,Lieu historique national du Canada des Remblais-de-Southwold,,,,,,Southwold Earthworks,,https://www.lunaris.ca/catalog/dd7e21b7-76e2-54c0-a7a6-497346d4f0bc?locale=en&q=National+Parks+and+National+Historic+Sites,,,National Historic Site of Canada,,
NPNHS_00082,,Canada,Centre d'interprétation du Vieux-Port-de-Québec,,,,,,Old Port of Quebec Interpretation Centre,,https://www.lunaris.ca/catalog/dd7e21b7-76e2-54c0-a7a6-497346d4f0bc?locale=en&q=National+Parks+and+National+Historic+Sites,,,Interpretation Centre,,
NPNHS_00083,,Canada,Lieu historique national du Canada de la Maison-Riel,,,,,,Riel House,,https://www.lunaris.ca/catalog/dd7e21b7-76e2-54c0-a7a6-497346d4f0bc?locale=en&q=National+Parks+and+National+Historic+Sites,,,National Historic Site of Canada,,
NPNHS_00084,,Canada,Parc national du Canada des Prairies,,,,,,Grasslands National Park ,,https://www.lunaris.ca/catalog/dd7e21b7-76e2-54c0-a7a6-497346d4f0bc?locale=en&q=National+Parks+and+National+Historic+Sites,,,National Park of Canada,,
NPNHS_00085,,Canada,Lieu historique national du Canada Boishébert,,,,,,Boishébert,,https://www.lunaris.ca/catalog/dd7e21b7-76e2-54c0-a7a6-497346d4f0bc?locale=en&q=National+Parks+and+National+Historic+Sites,,,National Historic Site of Canada,,
NPNHS_00086,,Canada,Lieu historique national du Canada Louis-S.-St-Laurent,,,,,,Louis S. St. Laurent,,https://www.lunaris.ca/catalog/dd7e21b7-76e2-54c0-a7a6-497346d4f0bc?locale=en&q=National+Parks+and+National+Historic+Sites,,,National Historic Site of Canada,,
NPNHS_00087,,Canada,Lieu historique national du Canada du Homestead-Motherwell,,,,,,Motherwell Homestead,,https://www.lunaris.ca/catalog/dd7e21b7-76e2-54c0-a7a6-497346d4f0bc?locale=en&q=National+Parks+and+National+Historic+Sites,,,National Historic Site of Canada,,
NPNHS_00088,,Canada,Lieu historique national du Canada du Canal-Rideau,,,,,,Rideau Canal,,https://www.lunaris.ca/catalog/dd7e21b7-76e2-54c0-a7a6-497346d4f0bc?locale=en&q=National+Parks+and+National+Historic+Sites,,,National Historic Site of Canada,,
NPNHS_00089,,Canada,Lieu historique national du Canada de la Voie-Navigable-Trent-Severn,,,,,,Trent-Severn Waterway,,https://www.lunaris.ca/catalog/dd7e21b7-76e2-54c0-a7a6-497346d4f0bc?locale=en&q=National+Parks+and+National+Historic+Sites,,,National Historic Site of Canada,,
NPNHS_00090,,Canada,Lieu historique national du Canada du Canal-de-Carillon,,,,,,Carillon Canal,,https://www.lunaris.ca/catalog/dd7e21b7-76e2-54c0-a7a6-497346d4f0bc?locale=en&q=National+Parks+and+National+Historic+Sites,,,National Historic Site of Canada,,
NPNHS_00091,,Canada,Lieu historique national du Canada du Canal-de-Sainte-Anne-de-Bellevue,,,,,,Sainte-Anne-de-Bellevue Canal,,https://www.lunaris.ca/catalog/dd7e21b7-76e2-54c0-a7a6-497346d4f0bc?locale=en&q=National+Parks+and+National+Historic+Sites,,,National Historic Site of Canada,,
NPNHS_00092,,Canada,Lieu historique national du Canada du Canal-de-Saint-Ours,,,,,,Saint-Ours Canal,,https://www.lunaris.ca/catalog/dd7e21b7-76e2-54c0-a7a6-497346d4f0bc?locale=en&q=National+Parks+and+National+Historic+Sites,,,National Historic Site of Canada,,
NPNHS_00093,,Canada,Lieu historique national du Canada du Canal-de-Chambly,,,,,,Chambly Canal,,https://www.lunaris.ca/catalog/dd7e21b7-76e2-54c0-a7a6-497346d4f0bc?locale=en&q=National+Parks+and+National+Historic+Sites,,,National Historic Site of Canada,,
NPNHS_00094,,Canada,Lieu historique national du Canada du Canal-de-St. Peters,,,,,,St. Peters Canal,,https://www.lunaris.ca/catalog/dd7e21b7-76e2-54c0-a7a6-497346d4f0bc?locale=en&q=National+Parks+and+National+Historic+Sites,,,National Historic Site of Canada,,
NPNHS_00095,,Canada,Lieu historique national du Canada du Canal-de-Sault Ste. Marie,,,,,,Sault Ste. Marie Canal,,https://www.lunaris.ca/catalog/dd7e21b7-76e2-54c0-a7a6-497346d4f0bc?locale=en&q=National+Parks+and+National+Historic+Sites,,,National Historic Site of Canada,,
NPNHS_00096,,Canada,Lieu historique national du Canada du Phare-de-Pointe-au-Père,,,,,,Pointe-au-Père Lighthouse,,https://www.lunaris.ca/catalog/dd7e21b7-76e2-54c0-a7a6-497346d4f0bc?locale=en&q=National+Parks+and+National+Historic+Sites,,,National Historic Site of Canada,,
NPNHS_00097,,Canada,Lieu historique national du Canada du Presbytère-St. Andrew's,,,,,,St. Andrew's Rectory,,https://www.lunaris.ca/catalog/dd7e21b7-76e2-54c0-a7a6-497346d4f0bc?locale=en&q=National+Parks+and+National+Historic+Sites,,,National Historic Site of Canada,,
NPNHS_00098,,Canada,Lieu historique national du Canada du Canal-de-Lachine,,,,,,Lachine Canal,,https://www.lunaris.ca/catalog/dd7e21b7-76e2-54c0-a7a6-497346d4f0bc?locale=en&q=National+Parks+and+National+Historic+Sites,,,National Historic Site of Canada,,
NPNHS_00099,,Canada,Parc national du Canada Ivvavik,,,,,,Ivvavik National Park ,,https://www.lunaris.ca/catalog/dd7e21b7-76e2-54c0-a7a6-497346d4f0bc?locale=en&q=National+Parks+and+National+Historic+Sites,,,National Park of Canada,,
NPNHS_00100,,Canada,Réserve de parc national du Canada de l'Archipel-de-Mingan,,,,,,Mingan Archipelago Reserve,,https://www.lunaris.ca/catalog/dd7e21b7-76e2-54c0-a7a6-497346d4f0bc?locale=en&q=National+Parks+and+National+Historic+Sites,,,National Park Reserve of Canada,,
NPNHS_00101,,Canada,Lieu historique national du Canada de la Piste-Chilkoot,,,,,,Chilkoot Trail,,https://www.lunaris.ca/catalog/dd7e21b7-76e2-54c0-a7a6-497346d4f0bc?locale=en&q=National+Parks+and+National+Historic+Sites,,,National Historic Site of Canada,,
NPNHS_00102,,Canada,Lieu historique national du Canada de la Bataille-de-la-Ristigouche,,,,,,Battle of the Restigouche,,https://www.lunaris.ca/catalog/dd7e21b7-76e2-54c0-a7a6-497346d4f0bc?locale=en&q=National+Parks+and+National+Historic+Sites,,,National Historic Site of Canada,,
NPNHS_00103,,Canada,Lieu historique national du Canada du Commerce-de-la-Fourrure-à-Lachine,,,,,,The Fur Trade at Lachine,,https://www.lunaris.ca/catalog/dd7e21b7-76e2-54c0-a7a6-497346d4f0bc?locale=en&q=National+Parks+and+National+Historic+Sites,,,National Historic Site of Canada,,
NPNHS_00104,,Canada,Lieu historique national du Canada de Sir-George-Étienne-Cartier,,,,,,Sir George-Étienne Cartier,,https://www.lunaris.ca/catalog/dd7e21b7-76e2-54c0-a7a6-497346d4f0bc?locale=en&q=National+Parks+and+National+Historic+Sites,,,National Historic Site of Canada,,
NPNHS_00105,,Canada,Parc national du Canada Quttinirpaaq,,,,,,Quttinirpaaq National Park ,,https://www.lunaris.ca/catalog/dd7e21b7-76e2-54c0-a7a6-497346d4f0bc?locale=en&q=National+Parks+and+National+Historic+Sites,,,National Park of Canada,,
NPNHS_00106,,Canada,Lieu historique national du Canada du Musée-du-Parc-Banff,,,,,,Banff Park Museum,,https://www.lunaris.ca/catalog/dd7e21b7-76e2-54c0-a7a6-497346d4f0bc?locale=en&q=National+Parks+and+National+Historic+Sites,,,National Historic Site of Canada,,
NPNHS_00107,,Canada,Lieu historique national du Canada Cave and Basin,,,,,,Cave and Basin,,https://www.lunaris.ca/catalog/dd7e21b7-76e2-54c0-a7a6-497346d4f0bc?locale=en&q=National+Parks+and+National+Historic+Sites,,,National Historic Site of Canada,,
NPNHS_00108,,Canada,Lieu historique national du Canada de La Fourche,,,,,,The Forks,,https://www.lunaris.ca/catalog/dd7e21b7-76e2-54c0-a7a6-497346d4f0bc?locale=en&q=National+Parks+and+National+Historic+Sites,,,National Historic Site of Canada,,
NPNHS_00109,,Canada,Lieu historique national du Canada de la Maison-Laurier,,,,,,Laurier House,,https://www.lunaris.ca/catalog/dd7e21b7-76e2-54c0-a7a6-497346d4f0bc?locale=en&q=National+Parks+and+National+Historic+Sites,,,National Historic Site of Canada,,
NPNHS_00110,,Canada,Lieu historique national du Canada Marconi,,,,,,Marconi,,https://www.lunaris.ca/catalog/dd7e21b7-76e2-54c0-a7a6-497346d4f0bc?locale=en&q=National+Parks+and+National+Historic+Sites,,,National Historic Site of Canada,,
NPNHS_00111,,Canada,Parc national du Canada de la Péninsule-Bruce,,,,,,Bruce Peninsula National Park ,,https://www.lunaris.ca/catalog/dd7e21b7-76e2-54c0-a7a6-497346d4f0bc?locale=en&q=National+Parks+and+National+Historic+Sites,,,National Park of Canada,,
NPNHS_00112,,Canada,Lieu historique national du Canada de la Grosse-Île-et-le-Mémorial-des-Irlandais,,,,,,Grosse Île and the Irish Memorial,,https://www.lunaris.ca/catalog/dd7e21b7-76e2-54c0-a7a6-497346d4f0bc?locale=en&q=National+Parks+and+National+Historic+Sites,,,National Historic Site of Canada,,
NPNHS_00113,,Canada,Parc marin national du Canada Fathom Five,,,,,,Fathom Five,,https://www.lunaris.ca/catalog/dd7e21b7-76e2-54c0-a7a6-497346d4f0bc?locale=en&q=National+Parks+and+National+Historic+Sites,,,National Historic Site of Canada,,
NPNHS_00114,,Canada,Parc marin du Saguenay—Saint-Laurent,,,,,,Saguenay—St. Lawrence Marine Park,,https://www.lunaris.ca/catalog/dd7e21b7-76e2-54c0-a7a6-497346d4f0bc?locale=en&q=National+Parks+and+National+Historic+Sites,,,National Park of Canada,,
NPNHS_00115,,Canada,Parc national du Canada Aulavik,,,,,,Aulavik National Park ,,https://www.lunaris.ca/catalog/dd7e21b7-76e2-54c0-a7a6-497346d4f0bc?locale=en&q=National+Parks+and+National+Historic+Sites,,,National Park of Canada,,
NPNHS_00116,,Canada,"Réserve de parc national, réserve d'aire marine nationale de conservation, et site du patrimoine haïda Gwaii Haanas",,,,,,Gwaii Haanas Reserve and Haida Heritage Site,,https://www.lunaris.ca/catalog/dd7e21b7-76e2-54c0-a7a6-497346d4f0bc?locale=en&q=National+Parks+and+National+Historic+Sites,,,"National Park Reserve, National Marine Conservation Area Reserve, and Heritage Site",,
NPNHS_00117,,Canada,Parc national du Canada Vuntut,,,,,,Vuntut National Park ,,https://www.lunaris.ca/catalog/dd7e21b7-76e2-54c0-a7a6-497346d4f0bc?locale=en&q=National+Parks+and+National+Historic+Sites,,,National Park of Canada,,
NPNHS_00118,,Canada,Lieu historique national du Canada Ardgowan,,,,,,Ardgowan,,https://www.lunaris.ca/catalog/dd7e21b7-76e2-54c0-a7a6-497346d4f0bc?locale=en&q=National+Parks+and+National+Historic+Sites,,,National Historic Site of Canada,,
NPNHS_00119,,Canada,Lieu historique national du Canada de la Bataille-du-Moulin-à-Vent,,,,,,Battle of the Windmill,,https://www.lunaris.ca/catalog/dd7e21b7-76e2-54c0-a7a6-497346d4f0bc?locale=en&q=National+Parks+and+National+Historic+Sites,,,National Historic Site of Canada,,
NPNHS_00120,,Canada,Lieu historique national du Canada du Phare-de-l'Île-Bois Blanc,,,,,,Bois Blanc Island Lighthouse,,https://www.lunaris.ca/catalog/dd7e21b7-76e2-54c0-a7a6-497346d4f0bc?locale=en&q=National+Parks+and+National+Historic+Sites,,,National Historic Site of Canada,,
NPNHS_00121,,Canada,Lieu historique national du Canada des Casernes-de-Butler,,,,,,Butler's Barracks,,https://www.lunaris.ca/catalog/dd7e21b7-76e2-54c0-a7a6-497346d4f0bc?locale=en&q=National+Parks+and+National+Historic+Sites,,,National Historic Site of Canada,,
NPNHS_00122,,Canada,Lieu historique national du Canada de la Caserne-de-Carillon,,,,,,Carillon Barracks,,https://www.lunaris.ca/catalog/dd7e21b7-76e2-54c0-a7a6-497346d4f0bc?locale=en&q=National+Parks+and+National+Historic+Sites,,,National Historic Site of Canada,,
NPNHS_00123,,Canada,Lieu historique national du Canada du Fort-McNab,,,,,,Fort McNab,,https://www.lunaris.ca/catalog/dd7e21b7-76e2-54c0-a7a6-497346d4f0bc?locale=en&q=National+Parks+and+National+Historic+Sites,,,National Historic Site of Canada,,
NPNHS_00124,,Canada,Lieu historique national du Canada du Fort-Mississauga,,,,,,Fort Mississauga,,https://www.lunaris.ca/catalog/dd7e21b7-76e2-54c0-a7a6-497346d4f0bc?locale=en&q=National+Parks+and+National+Historic+Sites,,,National Historic Site of Canada,,
NPNHS_00125,,Canada,Lieu historique national du Canada de l'Île-Georges,,,,,,Georges Island,,https://www.lunaris.ca/catalog/dd7e21b7-76e2-54c0-a7a6-497346d4f0bc?locale=en&q=National+Parks+and+National+Historic+Sites,,,National Historic Site of Canada,,
NPNHS_00126,,Canada,Lieu historique national du Canada du Cairn-de-Glengarry,,,,,,Glengarry Cairn,,https://www.lunaris.ca/catalog/dd7e21b7-76e2-54c0-a7a6-497346d4f0bc?locale=en&q=National+Parks+and+National+Historic+Sites,,,National Historic Site of Canada,,
NPNHS_00127,,Canada,Site patrimonial de Grande-Grave,,,,,,Grande-Grave,,https://www.lunaris.ca/catalog/dd7e21b7-76e2-54c0-a7a6-497346d4f0bc?locale=en&q=National+Parks+and+National+Historic+Sites,,,National Historic Site of Canada,,
NPNHS_00128,,Canada,Lieu historique national du Canada Gulf of Georgia Cannery,,,,,,Gulf of Georgia Cannery,,https://www.lunaris.ca/catalog/dd7e21b7-76e2-54c0-a7a6-497346d4f0bc?locale=en&q=National+Parks+and+National+Historic+Sites,,,National Historic Site of Canada,,
NPNHS_00129,,Canada,Lieu historique national du Canada du Cottage-Hawthorne,,,,,,Hawthorne Cottage,,https://www.lunaris.ca/catalog/dd7e21b7-76e2-54c0-a7a6-497346d4f0bc?locale=en&q=National+Parks+and+National+Historic+Sites,,,National Historic Site of Canada,,
NPNHS_00130,,Canada,Lieu historique national du Canada de la Maison-Inverarden,,,,,,Inverarden House,,https://www.lunaris.ca/catalog/dd7e21b7-76e2-54c0-a7a6-497346d4f0bc?locale=en&q=National+Parks+and+National+Historic+Sites,,,National Historic Site of Canada,,
NPNHS_00131,,Canada,Lieu historique national du Canada Kejimkujik,,,,,,Kejimkujik,,https://www.lunaris.ca/catalog/dd7e21b7-76e2-54c0-a7a6-497346d4f0bc?locale=en&q=National+Parks+and+National+Historic+Sites,,,National Historic Site of Canada,,
NPNHS_00132,,Canada,Lieu historique national du Canada des Tours-Martello-de-Kingston,,,,,,Kingston Martello Towers,,https://www.lunaris.ca/catalog/dd7e21b7-76e2-54c0-a7a6-497346d4f0bc?locale=en&q=National+Parks+and+National+Historic+Sites,,,National Historic Site of Canada,,
NPNHS_00133,,Canada,Lieu historique national du Canada de la colline-Battle Hill-des-Gitwangaks,,,,,,Gitwangak Battle Hill,,https://www.lunaris.ca/catalog/dd7e21b7-76e2-54c0-a7a6-497346d4f0bc?locale=en&q=National+Parks+and+National+Historic+Sites,,,National Historic Site of Canada,,
NPNHS_00134,,Canada,Lieu historique national du Canada du Manoir-Papineau,,,,,,Manoir Papineau,,https://www.lunaris.ca/catalog/dd7e21b7-76e2-54c0-a7a6-497346d4f0bc?locale=en&q=National+Parks+and+National+Historic+Sites,,,National Historic Site of Canada,,
NPNHS_00135,,Canada,Lieu historique national du Canada du Monument-Lefebvre,,,,,,Monument Lefebvre,,https://www.lunaris.ca/catalog/dd7e21b7-76e2-54c0-a7a6-497346d4f0bc?locale=en&q=National+Parks+and+National+Historic+Sites,,,National Historic Site of Canada,,
NPNHS_00136,,Canada,Lieu historique national du Canada de l'Île-Navy,,,,,,Navy Island,,https://www.lunaris.ca/catalog/dd7e21b7-76e2-54c0-a7a6-497346d4f0bc?locale=en&q=National+Parks+and+National+Historic+Sites,,,National Historic Site of Canada,,
NPNHS_00137,,Canada,Lieu historique national du Canada du Phare-de-la-Pointe-Clark,,,,,,Point Clark Lighthouse,,https://www.lunaris.ca/catalog/dd7e21b7-76e2-54c0-a7a6-497346d4f0bc?locale=en&q=National+Parks+and+National+Historic+Sites,,,National Historic Site of Canada,,
NPNHS_00138,,Canada,Lieu historique national du Canada de l'Établissement-Ryan,,,,,,Ryan Premises,,https://www.lunaris.ca/catalog/dd7e21b7-76e2-54c0-a7a6-497346d4f0bc?locale=en&q=National+Parks+and+National+Historic+Sites,,,National Historic Site of Canada,,
NPNHS_00139,,Canada,Lieu historique national du Canada de la Mission-Saint-Louis,,,,,,Saint-Louis Mission,,https://www.lunaris.ca/catalog/dd7e21b7-76e2-54c0-a7a6-497346d4f0bc?locale=en&q=National+Parks+and+National+Historic+Sites,,,National Historic Site of Canada,,
NPNHS_00140,,Canada,Lieu historique national du Canada de la Maison-de-Sir-John-Johnson,,,,,,Sir John Johnson House,,https://www.lunaris.ca/catalog/dd7e21b7-76e2-54c0-a7a6-497346d4f0bc?locale=en&q=National+Parks+and+National+Historic+Sites,,,National Historic Site of Canada,,
NPNHS_00141,,Canada,"L'exposition de la pêche sur les bancs, à l'ère de la voile",,,,,,"The Bank Fishery, The Age Of Sail Exhibit",,https://www.lunaris.ca/catalog/dd7e21b7-76e2-54c0-a7a6-497346d4f0bc?locale=en&q=National+Parks+and+National+Historic+Sites,,,National Historic Site of Canada,,
NPNHS_00142,,Canada,Tour commémorative des Pionniers-de-Waterloo,,,,,,Waterloo Pioneers Memorial Tower,,https://www.lunaris.ca/catalog/dd7e21b7-76e2-54c0-a7a6-497346d4f0bc?locale=en&q=National+Parks+and+National+Historic+Sites,,,National Historic Site of Canada,,
NPNHS_00143,,Canada,Parc national du Canada Tuktut Nogait,,,,,,Tuktut Nogait National Park ,,https://www.lunaris.ca/catalog/dd7e21b7-76e2-54c0-a7a6-497346d4f0bc?locale=en&q=National+Parks+and+National+Historic+Sites,,,National Park of Canada,,
NPNHS_00144,,Canada,Parc national du Canada Wapusk,,,,,,Wapusk National Park ,,https://www.lunaris.ca/catalog/dd7e21b7-76e2-54c0-a7a6-497346d4f0bc?locale=en&q=National+Parks+and+National+Historic+Sites,,,National Park of Canada,,
NPNHS_00145,,Canada,Lieu historique national du Canada de Red Bay,,,,,,Red Bay,,https://www.lunaris.ca/catalog/dd7e21b7-76e2-54c0-a7a6-497346d4f0bc?locale=en&q=National+Parks+and+National+Historic+Sites,,,National Historic Site of Canada,,
NPNHS_00146,,Canada,Réserve de parc national du Canada Thaidene Nene,,,,,,Thaidene Nene National Park Reserve ,,https://www.lunaris.ca/catalog/dd7e21b7-76e2-54c0-a7a6-497346d4f0bc?locale=en&q=National+Parks+and+National+Historic+Sites,,,National Park Reserve of Canada,,
NPNHS_00147,,Canada,Parc national du Canada Sirmilik,,,,,,Sirmilik National Park ,,https://www.lunaris.ca/catalog/dd7e21b7-76e2-54c0-a7a6-497346d4f0bc?locale=en&q=National+Parks+and+National+Historic+Sites,,,National Park of Canada,,
NPNHS_00148,,Canada,Lieu historique national du Canada Dalvay-by-the-Sea,,,,,,Dalvay-by-the-Sea,,https://www.lunaris.ca/catalog/dd7e21b7-76e2-54c0-a7a6-497346d4f0bc?locale=en&q=National+Parks+and+National+Historic+Sites,,,National Historic Site of Canada,,
NPNHS_00149,,Canada,Lieux historiques nationaux du Canada Fort Rodd Hill – Phare-du-Fisgard,,,,,,Fort Rodd Hill – Fisgard Lighthouse,,https://www.lunaris.ca/catalog/dd7e21b7-76e2-54c0-a7a6-497346d4f0bc?locale=en&q=National+Parks+and+National+Historic+Sites,,,National Historic Sites of Canada,,
NPNHS_00150,,Canada,Réserve de parc national du Canada des Îles-Gulf,,,,,,Gulf Islands National Park Reserve ,,https://www.lunaris.ca/catalog/dd7e21b7-76e2-54c0-a7a6-497346d4f0bc?locale=en&q=National+Parks+and+National+Historic+Sites,,,National Park Reserve of Canada,,
NPNHS_00151,,Canada,Lieu historique national du Canada des Îles-Canso,,,,,,Canso Islands,,https://www.lunaris.ca/catalog/dd7e21b7-76e2-54c0-a7a6-497346d4f0bc?locale=en&q=National+Parks+and+National+Historic+Sites,,,National Historic Site of Canada,,
NPNHS_00152,,Canada,Lieu historique national du Canada du NCSM Haida,,,,,,HMCS Haida,,https://www.lunaris.ca/catalog/dd7e21b7-76e2-54c0-a7a6-497346d4f0bc?locale=en&q=National+Parks+and+National+Historic+Sites,,,National Historic Site of Canada,,
NPNHS_00153,,Canada,Parc national du Canada des Monts-Torngat,,,,,,Torngat Mountains National Park,,https://www.lunaris.ca/catalog/dd7e21b7-76e2-54c0-a7a6-497346d4f0bc?locale=en&q=National+Parks+and+National+Historic+Sites,,,National Park of Canada,,
NPNHS_00154,,Canada,Centre de découverte marine du Canada,,,,,,Canada Marine Discovery Centre,,https://www.lunaris.ca/catalog/dd7e21b7-76e2-54c0-a7a6-497346d4f0bc?locale=en&q=National+Parks+and+National+Historic+Sites,,,Marine Discovery Centre,,
NPNHS_00155,,Canada,Parc national du Canada du Ukkusiksalik,,,,,,Ukkusiksalik National Park ,,https://www.lunaris.ca/catalog/dd7e21b7-76e2-54c0-a7a6-497346d4f0bc?locale=en&q=National+Parks+and+National+Historic+Sites,,,National Park of Canada,,
NPNHS_00156,,Canada,Parc national du Canada du Qausuittuq,,,,,,Qausuittuq National Park ,,https://www.lunaris.ca/catalog/dd7e21b7-76e2-54c0-a7a6-497346d4f0bc?locale=en&q=National+Parks+and+National+Historic+Sites,,,National Park of Canada,,
NPNHS_00157,,Canada,Réserve de parc national du Canada de l'Île-de-Sable,,,,,,Sable Island National Park Reserve ,,https://www.lunaris.ca/catalog/dd7e21b7-76e2-54c0-a7a6-497346d4f0bc?locale=en&q=National+Parks+and+National+Historic+Sites,,,National Park of Canada,,
NPNHS_00158,,Canada,Lieu historique national du Canada des Forts-et-Châteaux-Saint-Louis,,,,,,Saint-Louis Forts and Châteaux,,https://www.lunaris.ca/catalog/dd7e21b7-76e2-54c0-a7a6-497346d4f0bc?locale=en&q=National+Parks+and+National+Historic+Sites,,,National Historic Site of Canada,,
NPNHS_00159,,Canada,Lieu historique national du Canada du Ranch-Bar U,,,,,,Bar U Ranch,,https://www.lunaris.ca/catalog/dd7e21b7-76e2-54c0-a7a6-497346d4f0bc?locale=en&q=National+Parks+and+National+Historic+Sites,,,National Historic Site of Canada,,
NPNHS_00160,,Canada,Lieu historique national du Canada du Complexe-Historique-de-Dawson,,,,,,Dawson Historical Complex,,https://www.lunaris.ca/catalog/dd7e21b7-76e2-54c0-a7a6-497346d4f0bc?locale=en&q=National+Parks+and+National+Historic+Sites,,,National Historic Site of Canada,,
NPNHS_00161,,Canada,Site patrimonial de la Maison Green Gables,,,,,,Green Gables House,,https://www.lunaris.ca/catalog/dd7e21b7-76e2-54c0-a7a6-497346d4f0bc?locale=en&q=National+Parks+and+National+Historic+Sites,,,National Historic Site of Canada,,
NPNHS_00162,,Canada,Centre d'interprétation et d'observation de Pointe-Noire,,,,,,Pointe-Noire Interpretation and Observation Centre,,https://www.lunaris.ca/catalog/dd7e21b7-76e2-54c0-a7a6-497346d4f0bc?locale=en&q=National+Parks+and+National+Historic+Sites,,,National Historic Site of Canada,,
NPNHS_00163,,Canada,Centre de découverte du milieu marin,,,,,,Marine Environment Discovery Centre,,https://www.lunaris.ca/catalog/dd7e21b7-76e2-54c0-a7a6-497346d4f0bc?locale=en&q=National+Parks+and+National+Historic+Sites,,,Environment Discovery Centre,,
NPNHS_00164,,Canada,Centre d'interprétation et d'observation de Cap-de-Bon-Désir,,,,,,Cap de Bon-Désir Interpretation and Observation Centre,,https://www.lunaris.ca/catalog/dd7e21b7-76e2-54c0-a7a6-497346d4f0bc?locale=en&q=National+Parks+and+National+Historic+Sites,,,National Historic Site of Canada,,
NPNHS_00165,,Canada,Sources thermales Miette,,,,,,Miette Hot Springs,,https://www.lunaris.ca/catalog/dd7e21b7-76e2-54c0-a7a6-497346d4f0bc?locale=en&q=National+Parks+and+National+Historic+Sites,,,Hot Springs,,
NPNHS_00166,,Canada,Sources thermales Upper Hot Springs de Banff,,,,,,Banff Upper Hot Springs,,https://www.lunaris.ca/catalog/dd7e21b7-76e2-54c0-a7a6-497346d4f0bc?locale=en&q=National+Parks+and+National+Historic+Sites,,,Hot Springs,,
NPNHS_00167,,Canada,Sources thermales Radium,,,,,,Radium Hot Springs,,https://www.lunaris.ca/catalog/dd7e21b7-76e2-54c0-a7a6-497346d4f0bc?locale=en&q=National+Parks+and+National+Historic+Sites,,,Hot Springs,,
